ORBCOMM-X               
1 21576U 91050C   25238.67460144  .00000280  00000+0  95848-4 0  9995
2 21576  98.3380 303.8214 0003158 354.1777   5.9376 14.43306602792283
ORBCOMM FM01            
1 23545U 95017A   25238.80505584  .00005418  00000+0  55898-3 0  9991
2 23545  69.9608 257.9531 0005288 242.4121 117.6497 14.90736307623039
ORBCOMM FM02            
1 23546U 95017B   25238.63656961  .00006934  00000+0  69459-3 0  9991
2 23546  69.9629 277.5218 0006439 236.7174 123.3365 14.91769045622668
ORBCOMM FM08            
1 25112U 97084A   25238.86349544  .00001595  00000+0  48372-3 0  9998
2 25112  45.0152  28.5394 0006889 236.4680 123.5514 14.45996810451605
ORBCOMM FM10            
1 25113U 97084B   25238.85517592  .00001419  00000+0  43691-3 0  9992
2 25113  45.0164  31.0848 0005744 204.4517 155.6063 14.45773690626748
ORBCOMM FM11            
1 25114U 97084C   25238.87199502  .00001510  00000+0  46455-3 0  9995
2 25114  45.0148  31.7658 0006546 206.7335 153.3180 14.45523957451707
ORBCOMM FM12            
1 25115U 97084D   25238.90255763  .00001451  00000+0  44785-3 0  9990
2 25115  45.0156  31.3619 0005628 203.1783 156.8815 14.45543573451505
ORBCOMM FM09            
1 25116U 97084E   25238.73369647  .00001258  00000+0  39474-3 0  9993
2 25116  45.0160  33.1760 0006915 194.6606 165.4046 14.45412342451686
